[{"OBJECT_NAME":"STARLINK-3814","OBJECT_ID":"2022-045E","EPOCH":"2024-01-08T17:36:32.592384","MEAN_MOTION":15.08840838,"ECCENTRICITY":0.0001238,"INCLINATION":53.2163,"RA_OF_ASC_NODE":159.8612,"ARG_OF_PERICENTER":89.9008,"MEAN_ANOMALY":270.2126,"EPHEMERIS_TYPE":0,"CLASSIFICATION_TYPE":"U","NORAD_CAT_ID":52335,"ELEMENT_SET_NO":999,"REV_AT_EPOCH":9623,"BSTAR":2.3522e-5,"MEAN_MOTION_DOT":8.7e-7,"MEAN_MOTION_DDOT":0},{"OBJECT_NAME":"STARLINK-3823","OBJECT_ID":"2022-045F","EPOCH":"2024-01-08T16:59:24.580032","MEAN_MOTION":15.08842037,"ECCENTRICITY":0.0001365,"INCLINATION":53.2166,"RA_OF_ASC_NODE":159.7728,"ARG_OF_PERICENTER":78.8486,"MEAN_ANOMALY":281.266,"EPHEMERIS_TYPE":0,"CLASSIFICATION_TYPE":"U","NORAD_CAT_ID":52336,"ELEMENT_SET_NO":999,"REV_AT_EPOCH":9623,"BSTAR":3.201e-5,"MEAN_MOTION_DOT":2.22e-6,"MEAN_MOTION_DDOT":0},{"OBJECT_NAME":"STARLINK-3797","OBJECT_ID":"2022-045G","EPOCH":"2024-01-08T16:17:02.896800","MEAN_MOTION":15.08843123,"ECCENTRICITY":0.0001291,"INCLINATION":53.2161,"RA_OF_ASC_NODE":160.1093,"ARG_OF_PERICENTER":89.3419,"MEAN_ANOMALY":270.7721,"EPHEMERIS_TYPE":0,"CLASSIFICATION_TYPE":"U","NORAD_CAT_ID":52337,"ELEMENT_SET_NO":999,"REV_AT_EPOCH":9622,"BSTAR":5.0812e-5,"MEAN_MOTION_DOT":5.21e-6,"MEAN_MOTION_DDOT":0},{"OBJECT_NAME":"STARLINK-3815","OBJECT_ID":"2022-045H","EPOCH":"2024-01-08T16:17:39.257376","MEAN_MOTION":15.12894667,"ECCENTRICITY":0.0001597,"INCLINATION":53.219,"RA_OF_ASC_NODE":144.464,"ARG_OF_PERICENTER":79.3735,"MEAN_ANOMALY":280.7439,"EPHEMERIS_TYPE":0,"CLASSIFICATION_TYPE":"U","NORAD_CAT_ID":52338,"ELEMENT_SET_NO":999,"REV_AT_EPOCH":9645,"BSTAR":0.00043282,"MEAN_MOTION_DOT":7.415e-5,"MEAN_MOTION_DDOT":0},{"OBJECT_NAME":"STARLINK-3792","OBJECT_ID":"2022-045J","EPOCH":"2024-01-08T16:27:34.800480","MEAN_MOTION":15.08859955,"ECCENTRICITY":0.0001373,"INCLINATION":53.2169,"RA_OF_ASC_NODE":159.7179,"ARG_OF_PERICENTER":80.8835,"MEAN_ANOMALY":279.2312,"EPHEMERIS_TYPE":0,"CLASSIFICATION_TYPE":"U","NORAD_CAT_ID":52339,"ELEMENT_SET_NO":999,"REV_AT_EPOCH":9623,"BSTAR":-0.00016918,"MEAN_MOTION_DOT":-2.981e-5,"MEAN_MOTION_DDOT":0},{"OBJECT_NAME":"STARLINK-3818","OBJECT_ID":"2022-045K","EPOCH":"2024-01-08T16:23:40.412832","MEAN_MOTION":15.08841283,"ECCENTRICITY":0.0001418,"INCLINATION":53.2174,"RA_OF_ASC_NODE":150.0888,"ARG_OF_PERICENTER":97.3213,"MEAN_ANOMALY":262.794,"EPHEMERIS_TYPE":0,"CLASSIFICATION_TYPE":"U","NORAD_CAT_ID":52340,"ELEMENT_SET_NO":999,"REV_AT_EPOCH":9635,"BSTAR":9.285e-5,"MEAN_MOTION_DOT":1.19e-5,"MEAN_MOTION_DDOT":0},{"OBJECT_NAME":"STARLINK-3843","OBJECT_ID":"2022-045L","EPOCH":"2024-01-08T17:15:20.202048","MEAN_MOTION":15.08839746,"ECCENTRICITY":0.0001308,"INCLINATION":53.2166,"RA_OF_ASC_NODE":159.8762,"ARG_OF_PERICENTER":88.761,"MEAN_ANOMALY":271.3532,"EPHEMERIS_TYPE":0,"CLASSIFICATION_TYPE":"U","NORAD_CAT_ID":52341,"ELEMENT_SET_NO":999,"REV_AT_EPOCH":9623,"BSTAR":6.4332e-5,"MEAN_MOTION_DOT":7.36e-6,"MEAN_MOTION_DDOT":0},{"OBJECT_NAME":"STARLINK-3850","OBJECT_ID":"2022-045M","EPOCH":"2024-01-08T14:53:36.809952","MEAN_MOTION":15.08840347,"ECCENTRICITY":0.0001476,"INCLINATION":53.2181,"RA_OF_ASC_NODE":150.4877,"ARG_OF_PERICENTER":97.5048,"MEAN_ANOMALY":262.6112,"EPHEMERIS_TYPE":0,"CLASSIFICATION_TYPE":"U","NORAD_CAT_ID":52342,"ELEMENT_SET_NO":999,"REV_AT_EPOCH":9635,"BSTAR":-1.1214e-5,"MEAN_MOTION_DOT":-4.66e-6,"MEAN_MOTION_DDOT":0},{"OBJECT_NAME":"STARLINK-3849","OBJECT_ID":"2022-045N","EPOCH":"2024-01-08T16:32:56.683680","MEAN_MOTION":15.08845045,"ECCENTRICITY":0.0001347,"INCLINATION":53.2163,"RA_OF_ASC_NODE":160.0596,"ARG_OF_PERICENTER":78.2732,"MEAN_ANOMALY":281.8411,"EPHEMERIS_TYPE":0,"CLASSIFICATION_TYPE":"U","NORAD_CAT_ID":52343,"ELEMENT_SET_NO":999,"REV_AT_EPOCH":9623,"BSTAR":2.7191e-5,"MEAN_MOTION_DOT":1.45e-6,"MEAN_MOTION_DDOT":0},{"OBJECT_NAME":"STARLINK-3851","OBJECT_ID":"2022-045P","EPOCH":"2024-01-08T14:37:42.181536","MEAN_MOTION":15.08841166,"ECCENTRICITY":0.0001154,"INCLINATION":53.2167,"RA_OF_ASC_NODE":150.4843,"ARG_OF_PERICENTER":86.3334,"MEAN_ANOMALY":273.779,"EPHEMERIS_TYPE":0,"CLASSIFICATION_TYPE":"U","NORAD_CAT_ID":52344,"ELEMENT_SET_NO":999,"REV_AT_EPOCH":9635,"BSTAR":7.4481e-5,"MEAN_MOTION_DOT":8.98e-6,"MEAN_MOTION_DDOT":0},{"OBJECT_NAME":"STARLINK-3852","OBJECT_ID":"2022-045Q","EPOCH":"2024-01-08T16:51:34.515648","MEAN_MOTION":15.08844522,"ECCENTRICITY":0.0001356,"INCLINATION":53.2165,"RA_OF_ASC_NODE":150.1649,"ARG_OF_PERICENTER":82.4101,"MEAN_ANOMALY":277.7046,"EPHEMERIS_TYPE":0,"CLASSIFICATION_TYPE":"U","NORAD_CAT_ID":52345,"ELEMENT_SET_NO":999,"REV_AT_EPOCH":9635,"BSTAR":0.00012954,"MEAN_MOTION_DOT":1.775e-5,"MEAN_MOTION_DDOT":0},{"OBJECT_NAME":"STARLINK-3812","OBJECT_ID":"2022-045R","EPOCH":"2024-01-08T16:03:51.464160","MEAN_MOTION":15.08842827,"ECCENTRICITY":0.0001323,"INCLINATION":53.2164,"RA_OF_ASC_NODE":150.1608,"ARG_OF_PERICENTER":89.3792,"MEAN_ANOMALY":270.7351,"EPHEMERIS_TYPE":0,"CLASSIFICATION_TYPE":"U","NORAD_CAT_ID":52346,"ELEMENT_SET_NO":999,"REV_AT_EPOCH":9636,"BSTAR":1.576e-5,"MEAN_MOTION_DOT":-3.7e-7,"MEAN_MOTION_DDOT":0},{"OBJECT_NAME":"STARLINK-3826","OBJECT_ID":"2022-045S","EPOCH":"2024-01-08T16:19:45.397920","MEAN_MOTION":15.08842251,"ECCENTRICITY":0.000144,"INCLINATION":53.2174,"RA_OF_ASC_NODE":150.1113,"ARG_OF_PERICENTER":97.6512,"MEAN_ANOMALY":262.4644,"EPHEMERIS_TYPE":0,"CLASSIFICATION_TYPE":"U","NORAD_CAT_ID":52347,"ELEMENT_SET_NO":999,"REV_AT_EPOCH":9636,"BSTAR":0.00010858,"MEAN_MOTION_DOT":1.441e-5,"MEAN_MOTION_DDOT":0},{"OBJECT_NAME":"STARLINK-3829","OBJECT_ID":"2022-045T","EPOCH":"2024-01-08T15:51:52.520256","MEAN_MOTION":15.08846429,"ECCENTRICITY":0.0001296,"INCLINATION":53.2164,"RA_OF_ASC_NODE":150.1874,"ARG_OF_PERICENTER":92.8522,"MEAN_ANOMALY":267.2618,"EPHEMERIS_TYPE":0,"CLASSIFICATION_TYPE":"U","NORAD_CAT_ID":52348,"ELEMENT_SET_NO":999,"REV_AT_EPOCH":9636,"BSTAR":4.9267e-5,"MEAN_MOTION_DOT":4.96e-6,"MEAN_MOTION_DDOT":0},{"OBJECT_NAME":"STARLINK-3819","OBJECT_ID":"2022-045U","EPOCH":"2024-01-08T14:32:23.808768","MEAN_MOTION":15.08839345,"ECCENTRICITY":0.0001334,"INCLINATION":53.2169,"RA_OF_ASC_NODE":150.437,"ARG_OF_PERICENTER":91.8414,"MEAN_ANOMALY":268.273,"EPHEMERIS_TYPE":0,"CLASSIFICATION_TYPE":"U","NORAD_CAT_ID":52349,"ELEMENT_SET_NO":999,"REV_AT_EPOCH":9635,"BSTAR":1.1183e-5,"MEAN_MOTION_DOT":-1.1e-6,"MEAN_MOTION_DDOT":0},{"OBJECT_NAME":"STARLINK-3754","OBJECT_ID":"2022-045V","EPOCH":"2024-01-08T15:46:32.417760","MEAN_MOTION":15.0886725,"ECCENTRICITY":0.0001178,"INCLINATION":53.2163,"RA_OF_ASC_NODE":150.2044,"ARG_OF_PERICENTER":104.328,"MEAN_ANOMALY":255.7843,"EPHEMERIS_TYPE":0,"CLASSIFICATION_TYPE":"U","NORAD_CAT_ID":52350,"ELEMENT_SET_NO":999,"REV_AT_EPOCH":9636,"BSTAR":0.0002225,"MEAN_MOTION_DOT":3.258e-5,"MEAN_MOTION_DDOT":0},{"OBJECT_NAME":"STARLINK-3838","OBJECT_ID":"2022-045X","EPOCH":"2024-01-08T17:06:04.033152","MEAN_MOTION":15.08846128,"ECCENTRICITY":0.0001421,"INCLINATION":53.2176,"RA_OF_ASC_NODE":149.9577,"ARG_OF_PERICENTER":80.8726,"MEAN_ANOMALY":279.2427,"EPHEMERIS_TYPE":0,"CLASSIFICATION_TYPE":"U","NORAD_CAT_ID":52352,"ELEMENT_SET_NO":999,"REV_AT_EPOCH":9637,"BSTAR":4.2332e-5,"MEAN_MOTION_DOT":3.86e-6,"MEAN_MOTION_DDOT":0}]
