STARLINK-3814           
1 52335U 22045E   24008.73371056  .00000087  00000+0  23522-4 0  9999
2 52335  53.2163 159.8612 0001238  89.9008 270.2126 15.08840838 96235
STARLINK-3823           
1 52336U 22045F   24008.70792338  .00000222  00000+0  32010-4 0  9990
2 52336  53.2166 159.7728 0001365  78.8486 281.2660 15.08842037 96232
STARLINK-3797           
1 52337U 22045G   24008.67850575  .00000521  00000+0  50812-4 0  9997
2 52337  53.2161 160.1093 0001291  89.3419 270.7721 15.08843123 96227
STARLINK-3815           
1 52338U 22045H   24008.67892659  .00007415  00000+0  43282-3 0  9998
2 52338  53.2190 144.4640 0001597  79.3735 280.7439 15.12894667 96458
STARLINK-3792           
1 52339U 22045J   24008.68581945 -.00002981  00000+0 -16918-3 0  9994
2 52339  53.2169 159.7179 0001373  80.8835 279.2312 15.08859955 96236
STARLINK-3818           
1 52340U 22045K   24008.68310663  .00001190  00000+0  92850-4 0  9992
2 52340  53.2174 150.0888 0001418  97.3213 262.7940 15.08841283 96350
STARLINK-3843           
1 52341U 22045L   24008.71898382  .00000736  00000+0  64332-4 0  9995
2 52341  53.2166 159.8762 0001308  88.7610 271.3532 15.08839746 96234
STARLINK-3850           
1 52342U 22045M   24008.62056493 -.00000466  00000+0 -11214-4 0  9998
2 52342  53.2181 150.4877 0001476  97.5048 262.6112 15.08840347 96354
STARLINK-3849           
1 52343U 22045N   24008.68954495  .00000145  00000+0  27191-4 0  9997
2 52343  53.2163 160.0596 0001347  78.2732 281.8411 15.08845045 96235
STARLINK-3851           
1 52344U 22045P   24008.60951599  .00000898  00000+0  74481-4 0  9991
2 52344  53.2167 150.4843 0001154  86.3334 273.7790 15.08841166 96355
STARLINK-3852           
1 52345U 22045Q   24008.70248282  .00001775  00000+0  12954-3 0  9992
2 52345  53.2165 150.1649 0001356  82.4101 277.7046 15.08844522 96355
STARLINK-3812           
1 52346U 22045R   24008.66934565 -.00000037  00000+0  15760-4 0  9994
2 52346  53.2164 150.1608 0001323  89.3792 270.7351 15.08842827 96365
STARLINK-3826           
1 52347U 22045S   24008.68038655  .00001441  00000+0  10858-3 0  9993
2 52347  53.2174 150.1113 0001440  97.6512 262.4644 15.08842251 96364
STARLINK-3829           
1 52348U 22045T   24008.66102454  .00000496  00000+0  49267-4 0  9997
2 52348  53.2164 150.1874 0001296  92.8522 267.2618 15.08846429 96360
STARLINK-3819           
1 52349U 22045U   24008.60583112 -.00000110  00000+0  11183-4 0  9996
2 52349  53.2169 150.4370 0001334  91.8414 268.2730 15.08839345 96356
STARLINK-3754           
1 52350U 22045V   24008.65731965  .00003258  00000+0  22250-3 0  9995
2 52350  53.2163 150.2044 0001178 104.3280 255.7843 15.08867250 96368
STARLINK-3838           
1 52352U 22045X   24008.71254668  .00000386  00000+0  42332-4 0  9997
2 52352  53.2176 149.9577 0001421  80.8726 279.2427 15.08846128 96375
